NORAD_CAT_ID,OBJECT_NAME,OBJECT_TYPE,EPOCH,MEAN_MOTION,ECCENTRICITY,INCLINATION,RA_OF_ASC_NODE,ARG_OF_PERICENTER,MEAN_ANOMALY,BSTAR,MEAN_MOTION_DOT,MEAN_MOTION_DDOT,TLE_LINE0,TLE_LINE1,TLE_LINE2,SEMIMAJOR_AXIS,PERIOD,APOGEE,PERIGEE,DECAYED
49447.0,STARLINK-3115,PAYLOAD,2022-02-06 14:00:01,15.25637084,0.0001733,53.2173,78.1444,39.3558,66.6695,-0.027348,-0.00654398,0.0,0 STARLINK-3115,1 49447U 21104AR  22037.58335648 -.00654398  00000-0 -27348-1 0  9994,2 49447  53.2173  78.1444 0001733  39.3558  66.6695 15.25637084  3648,6867.01,94.387,490.065,487.685,0.0
49447.0,STARLINK-3115,PAYLOAD,2022-02-06 22:00:00,15.251718,0.0001939,53.2174,76.6077,33.5892,103.8703,-0.027837,-0.00656651,0.0,0 STARLINK-3115,1 49447U 21104AR  22037.91667824 -.00656651  00000-0 -27837-1 0  9992,2 49447  53.2174  76.6077 0001939  33.5892 103.8703 15.25171800 14633,6868.406999999997,94.416,491.603,488.94,0.0
49447.0,STARLINK-3115,PAYLOAD,2022-02-07 14:00:01,15.24237541,0.0001783,53.2172,73.5426,42.9797,155.7915,-0.028526,-0.00654393,0.0,0 STARLINK-3115,1 49447U 21104AR  22038.58334491 -.00654393  00000-0 -28526-1 0  9994,2 49447  53.2172  73.5426 0001783  42.9797 155.7915 15.24237541  3644,6871.2130000000025,94.473,494.30300000000005,491.853,0.0
49447.0,STARLINK-3115,PAYLOAD,2022-02-07 22:00:00,15.23771668,0.0001811,53.2173,72.0089,41.0432,187.5442,-0.028981,-0.00655528,0.0,0 STARLINK-3115,1 49447U 21104AR  22038.91667824 -.00655528  00000-0 -28981-1 0  9996,2 49447  53.2173  72.0089 0001811  41.0432 187.5442 15.23771668  3664,6872.613,94.502,495.723,493.234,0.0
49447.0,STARLINK-3115,PAYLOAD,2022-02-08 06:00:00,15.23218184,0.0001661,53.2177,70.4801,45.3075,212.5845,-0.024261,-0.005466,0.0,0 STARLINK-3115,1 49447U 21104AR  22039.25001157 -.00546600  00000-0 -24261-1 0  9992,2 49447  53.2177  70.4801 0001661  45.3075 212.5845 15.23218184 14831,6874.278,94.537,497.285,495.001,0.0
49447.0,STARLINK-3115,PAYLOAD,2022-02-08 14:00:01,15.22839866,0.0001621,53.2172,68.9505,47.0126,239.5216,-0.029891,-0.00657396,0.0,0 STARLINK-3115,1 49447U 21104AR  22039.58334491 -.00657396  00000-0 -29891-1 0  9997,2 49447  53.2172  68.9505 0001621  47.0126 239.5216 15.22839866 14882,6875.417,94.56,498.396,496.167,0.0
49447.0,STARLINK-3115,PAYLOAD,2022-02-08 22:00:01,15.22371145,0.0001671,53.2174,67.4202,41.1989,273.5343,-0.030159,-0.00654348,0.0,0 STARLINK-3115,1 49447U 21104AR  22039.91668981 -.00654348  00000-0 -30159-1 0  9991,2 49447  53.2174  67.4202 0001671  41.1989 273.5343 15.22371145  3652,6876.828,94.589,499.842,497.544,0.0
49447.0,STARLINK-3115,PAYLOAD,2022-02-09 13:57:41,15.22346972,0.000104,53.2183,64.382,52.7171,307.3921,-0.013407,-0.00300992,0.0,0 STARLINK-3115,1 49447U 21104AR  22040.58172558 -.00300992  00000-0 -13407-1 0  9996,2 49447  53.2183  64.3820 0001040  52.7171 307.3921 15.22346972 13968,6876.901,94.591,499.481,498.05,0.0
49447.0,STARLINK-3115,PAYLOAD,2022-02-09 22:00:00,15.20971672,0.0001726,53.2173,62.8414,35.8659,359.8401,-0.031469,-0.00655046,0.0,0 STARLINK-3115,1 49447U 21104AR  22040.91667824 -.00655046  00000-0 -31469-1 0  9999,2 49447  53.2173  62.8414 0001726  35.8659 359.8401 15.20971672 15082,6881.045,94.676,504.098,501.723,0.0
49447.0,STARLINK-3115,PAYLOAD,2022-02-10 13:37:13,15.21019512,0.0001425,53.2178,59.8744,38.8179,321.2920000000001,-0.013431,-0.00290391,0.0,0 STARLINK-3115,1 49447U 21104AR  22041.56751871 -.00290391  00000-0 -13431-1 0  9994,2 49447  53.2178  59.8744 0001425  38.8179 321.2920 15.21019512 14114,6880.901,94.673,503.747,501.786,0.0
49447.0,STARLINK-3115,PAYLOAD,2022-02-10 22:00:00,15.19573526,0.0001738,53.2173,58.2725,40.5224,71.1735,-0.032933,-0.00664917,0.0,0 STARLINK-3115,1 49447U 21104AR  22041.91667824 -.00664917  00000-0 -32933-1 0  9994,2 49447  53.2173  58.2725 0001738  40.5224  71.1735 15.19573526 15246,6885.266,94.763,508.327,505.934,0.0
49447.0,STARLINK-3115,PAYLOAD,2022-02-11 05:24:20,15.20072228,0.0001299,53.2178,56.8728,44.4625,315.6476,-0.013667,-0.00287515,0.0,0 STARLINK-3115,1 49447U 21104AR  22042.22523916 -.00287515  00000-0 -13667-1 0  9990,2 49447  53.2178  56.8728 0001299  44.4625 315.6476 15.20072228 15285,6883.76,94.732,506.519,504.73,0.0
49447.0,STARLINK-3115,PAYLOAD,2022-02-11 13:18:06,15.19617366,0.000153,53.2178,55.3731,37.0811,323.0292,-0.014256,-0.00295624,0.0,0 STARLINK-3115,1 49447U 21104AR  22042.55423734 -.00295624  00000-0 -14256-1 0  9998,2 49447  53.2178  55.3731 0001530  37.0811 323.0292 15.19617366 15337,6885.1330000000025,94.761,508.052,505.945,0.0
49447.0,STARLINK-3115,PAYLOAD,2022-02-11 22:00:01,15.18174737,0.0001789,53.2172,53.7132,43.2818,139.4218,-0.034396,-0.00666667,0.0,0 STARLINK-3115,1 49447U 21104AR  22042.91668981 -.00666667  00000-0 -34396-1 0  9999,2 49447  53.2172  53.7132 0001789  43.2818 139.4218 15.18174737 15392,6889.494000000002,94.851,512.592,510.127,0.0
49447.0,STARLINK-3115,PAYLOAD,2022-02-12 05:06:02,15.18716095,0.0001512,53.2178,52.3745,7.4003,352.7016,-0.014378,-0.00290645,0.0,0 STARLINK-3115,1 49447U 21104AR  22043.21253041 -.00290645  00000-0 -14378-1 0  9997,2 49447  53.2178  52.3745 0001512   7.4003 352.7016 15.18716095 15435,6887.857,94.817,510.763,508.68,0.0
49447.0,STARLINK-3115,PAYLOAD,2022-02-12 13:00:16,15.18220404,0.000178,53.218,50.8763,41.548,318.5651,-0.0149259999999999,-0.00297161,0.0,0 STARLINK-3115,1 49447U 21104AR  22043.54185393 -.00297161  00000-0 -14926-1 0  9996,2 49447  53.2180  50.8763 0001780  41.5480 318.5651 15.18220404 14412,6889.356,94.848,512.447,509.995,0.0
49447.0,STARLINK-3115,PAYLOAD,2022-02-12 22:00:00,15.16774139,0.0001766,53.2172,49.1637,44.7655,203.7743,-0.03573,-0.00665197,0.0,0 STARLINK-3115,1 49447U 21104AR  22043.91667824 -.00665197  00000-0 -35730-1 0  9995,2 49447  53.2172  49.1637 0001766  44.7655 203.7743 15.16774139 15546,6893.735,94.938,516.817,514.382,0.0
49447.0,STARLINK-3115,PAYLOAD,2022-02-13 14:00:01,15.15843013,0.0001585,53.2172,46.1378,50.14100000000001,239.5265,-0.036879,-0.00668286,0.0,0 STARLINK-3115,1 49447U 21104AR  22044.58334491 -.00668286  00000-0 -36879-1 0  9997,2 49447  53.2172  46.1378 0001585  50.1410 239.5265 15.15843013  3645,6896.557,94.997,519.516,517.3290000000002,0.0
49447.0,STARLINK-3115,PAYLOAD,2022-02-14 06:00:00,15.14775267,0.0001888,53.2174,43.1158,47.2178,281.4163,-0.02779,-0.00488154,0.0,0 STARLINK-3115,1 49447U 21104AR  22045.25001157 -.00488154  00000-0 -27790-1 0  9998,2 49447  53.2174  43.1158 0001888  47.2178 281.4163 15.14775267 15745,6899.7980000000025,95.064,522.966,520.36,0.0
49447.0,STARLINK-3115,PAYLOAD,2022-02-14 14:00:01,15.14443097,0.0001629,53.2172,41.6046,42.9923,304.1649,-0.038359,-0.0066796999999999,0.0,0 STARLINK-3115,1 49447U 21104AR  22045.58334491 -.00667970  00000-0 -38359-1 0  9992,2 49447  53.2172  41.6046 0001629  42.9923 304.1649 15.14443097 15795,6900.807,95.084,523.7959999999998,521.548,0.0
49447.0,STARLINK-3115,PAYLOAD,2022-02-14 20:00:01,15.14089566,0.0001758,53.2173,40.4716,42.714,228.0292,-0.038335,-0.00661351,0.0,0 STARLINK-3115,1 49447U 21104AR  22045.83334491 -.00661351  00000-0 -38335-1 0  9991,2 49447  53.2173  40.4716 0001758  42.7140 228.0292 15.14089566  3623,6901.880999999999,95.107,524.9590000000002,522.533,0.0
49447.0,STARLINK-3115,PAYLOAD,2022-02-15 14:00:01,15.12985214,0.0001873,53.2172,37.0824,30.389,9.2411,-0.034837,-0.00581258,0.0,0 STARLINK-3115,1 49447U 21104AR  22046.58334491 -.00581258  00000-0 -34837-1 0  9994,2 49447  53.2172  37.0824 0001873  30.3890   9.2411 15.12985214  3600,6905.239000000001,95.176,528.3969999999998,525.811,0.0
49447.0,STARLINK-3115,PAYLOAD,2022-02-15 22:00:01,15.12573509,0.0001914,53.2173,35.5742,34.146,21.8799,-0.040063,-0.00662207,0.0,0 STARLINK-3115,1 49447U 21104AR  22046.91668981 -.00662207  00000-0 -40063-1 0  9997,2 49447  53.2173  35.5742 0001914  34.1460  21.8799 15.12573509 16001,6906.4919999999975,95.202,529.679,527.035,0.0
49447.0,STARLINK-3115,PAYLOAD,2022-02-16 14:00:01,15.11641719,0.0001684,53.2172,32.5676,43.8596,43.1402,-0.041274,-0.00664479,0.0,0 STARLINK-3115,1 49447U 21104AR  22047.58334491 -.00664479  00000-0 -41274-1 0  9995,2 49447  53.2172  32.5676 0001684  43.8596  43.1402 15.11641719  3624,6909.33,95.261,532.3580000000002,530.031,0.0
49447.0,STARLINK-3115,PAYLOAD,2022-02-16 22:00:00,15.11039615,0.0002048,53.2174,31.0648,40.414,61.3381,-0.029873,-0.00473393,0.0,0 STARLINK-3115,1 49447U 21104AR  22047.91667824 -.00473393  00000-0 -29873-1 0  9995,2 49447  53.2174  31.0648 0002048  40.4140  61.3381 15.11039615 16158,6911.165,95.299,534.446,531.615,0.0
49447.0,STARLINK-3115,PAYLOAD,2022-02-17 06:00:00,15.10584861,0.0001944,53.2178,29.5656,45.5435,70.3197,-0.031472,-0.00496035,0.0,0 STARLINK-3115,1 49447U 21104AR  22048.25001157 -.00496035  00000-0 -31472-1 0  9990,2 49447  53.2178  29.5656 0001944  45.5435  70.3197 15.10584861 16208,6912.552,95.327,535.761,533.073,0.0
49447.0,STARLINK-3115,PAYLOAD,2022-02-17 14:00:01,15.10197158,0.0001928,53.2174,28.0648,34.3847,94.9893,-0.038649,-0.00595548,0.0,0 STARLINK-3115,1 49447U 21104AR  22048.58334491 -.00595548  00000-0 -38649-1 0  9998,2 49447  53.2174  28.0648 0001928  34.3847  94.9893 15.10197158 16253,6913.735,95.352,536.933,534.2669999999998,0.0
49447.0,STARLINK-3115,PAYLOAD,2022-02-17 22:00:00,15.09638331,0.0002197,53.2175,26.5645,30.2819,112.1366,-0.030384,-0.00463773,0.0,0 STARLINK-3115,1 49447U 21104AR  22048.91667824 -.00463773  00000-0 -30384-1 0  9996,2 49447  53.2175  26.5645 0002197  30.2819 112.1366 15.09638331  3601,6915.441,95.387,538.826,535.7869999999998,0.0
49447.0,STARLINK-3115,PAYLOAD,2022-02-18 06:00:00,15.09151144,0.0001886,53.2178,25.0685,36.0491,118.81,-0.025917,-0.00394122,0.0,0 STARLINK-3115,1 49447U 21104AR  22049.25001157 -.00394122  00000-0 -25917-1 0  9992,2 49447  53.2178  25.0685 0001886  36.0491 118.8100 15.09151144 16353,6916.93,95.418,540.099,537.49,0.0
